id,device_id,name_th,name_en,lat,long
1,3131353861378310,โรงเรียนสาธิตจุฬาลงกรณ์มหาวิทยาลัยฝ่ายมัธยม - โรงอาหาร,"Canteen, Chulalongkorn University Demonstration Secondary School",13.735575,100.527319
2,3F3135385D379018,โรงเรียนสาธิตจุฬาลงกรณ์มหาวิทยาลัยฝ่ายมัธยม - ประตู 1 ,"Gate I, Chulalongkorn University Demonstration Secondary School",13.735706,100.526395
3,3F3032356F378905,คณะสถาปัตยกรรมศาสตร์ - โถงอาคารเรียน,"Faculty of Architecture, Chulalongkorn University",13.739742,100.530825
4,3131353877377D18,คณะพาณิชยศาสตร์และการบัญชี,"Faculty of Commerce and Accountancy, Chulalongkorn University",13.734072,100.530161
5,3131353867376B19,อาคารจามจุรี 9,"Chamchuri 8 Building, Chulalongkorn University",13.735789,100.525061
6,3131353853377510,หอพักยูเซ็นเตอร์,"U-Center, Chulalongkorn University",13.735099,100.526915
7,3131353856377910,คณะวิศวกรรมศาสตร์ -ภาควิชาวิศวกรรมโยธา ฯ,"Department of Civil Engineering, Chulalongkorn University",13.735508,100.532885
8,313135385E378918,คณะวิศวกรรมศาสตร์ - ภาควิชาวิศวกรรมเครื่องกล,"Department of Mechanical Engineering, Chulalongkorn University",13.736258,100.533131
9,393032356C378D05,คณะวิศวกรรมศาสตร์ - ภาควิชาวิศวกรรมเหมืองแร่และปิโตรเลียม,"Department of Mining and Materal Engineering, Chulalongkorn University",13.736025,100.533901
10,313135385B377418,คณะวิศวกรรมศาสตร์ - iCanteen,"Faculty of Engineering - iCanteen, Chulalongkorn University",13.73696,100.533984
11,3131353864378710,หอพักนิสิต,"Student Dormitory, Chulalongkorn Univerisity",13.740664,100.527513
12,3930323576378A05,อาคารจามจุรีสแควร์,Chamchuri Square,13.732618,100.530234
13,3930323577378B05,คณะวิทยาศาสตร์ - ตึกอาคารมหามกุฎ,Mahamakut Building - Faculty of Science ,13.735939,100.530466
14,3131353861377F18,โรงเรียนสาธิตจุฬาลงกรณ์มหาวิทยาลัยฝ่ายมัธยม - ทางเดินตึก 4,"Building 4, Chulalongkorn University Demonstration Secondary School",13.736054,100.527437
15,3131353876376310,โรงเรียนสาธิตจุฬาลงกรณ์มหาวิทยาลัยฝ่ายมัธยม - ทางเดินตึก 2,"Building 2, Chulalongkorn University Demonstration Secondary School",13.735934,100.527421
16,313135385E376019,โรงเรียนสาธิตจุฬาลงกรณ์มหาวิทยาลัยฝ่ายประถม - โถงประตูโรงเรียน,Chulalongkorn University Demonstration Elementary School,13.738115,100.527297
17,30AEA49CC204,ตึก 3 คณะวิศวกรรมศาสตร์ จุฬาลงกรณ์มหาวิทยาลัย,"Building 3, Faculty of Engineering, Chulalongkorn University",13.736983,100.533476
18,30AEA49CC248,อาคารสำนักงานใหญ่ (อาคาร1) การเคหะแห่งชาติ,Headquarter of National Housing Authority (Building 1),13.77487,100.646625
19,30AEA49CC2D4,อาคารสันทนาการ (อาคาร5) สำนักงานใหญ่การเคหะแห่งชาติ,"Multi-purpose Building, National Housing Authority (Buidling 5)",13.776105,100.64609
20,30AEA4981674,อาคารภูมิสิริมังคลานุสรณ์ - ชั้น 28 ห้อง 1,Bhumisiri Building - 28th Floor Room 1 ,13.732225,100.536821
21,30AEA4999CA4,*****อาคารวิศวฯ 100 ปี ห้อง 603 ,"Centennial Building, Faculty of Engineering - Room 603",13.736391,100.53412
22,868333030879387,*****สถานีทดสอบที่ 1,Testing station 1,13.824576,100.579485
23,868333030873646,*****กรมประชาสัมพันธ์,Government Public Relations Department,13.783098,100.540368
24,868333030868281,*****กรมทรัพยากรน้ำ,Department of Water Resources,13.785348,100.539084
42,868333031257948,สำนักงานเคหะนครหลวง สาขาร่มเกล้า2 การเคหะแห่งชาติ,"Metropolitan Rom-Klao Office Branch 2, National Housing Authority",13.761554,100.72309
43,868333031267137,สำนักงานเคหะนครหลวงสาขาหนองจอก (โครงการเคหะชุมชนหนองจอก) การเคหะแห่งชาติ,"Nong Chok Metropolitan Office (Nong Chok Community Housing Project), National Housing Authority",13.861174,100.819508
44,868333031254929,สำนักงานเคหะนครหลวงสาขารามคำแหง (โครงการเคหะชุมชนรามคำแหง) การเคหะแห่งชาติ,"Ram Kamhaeng Metropolitan Office (Ram khamhaeng Community Housing Project), National Housing Authority",13.80317,100.730006
45,868333031271931,สำนักงานเคหะนครหลวงสาขานวมินทร์ (โครงการเคหะชุมชนนวมินทร์) การเคหะแห่งชาติ,"Nawamin Metropolitan Office (Nawamin Community Housing Project), National Housing Authority",13.821939,100.651845
46,868333031256064,สำนักงานเคหะนครหลวงสาขาออเงิน (โครงการเคหะชุมชนออเงิน) การเคหะแห่งชาติ,"Or-Ngen Metropolitan Office (Or-Ngen Community Housing Project), National Housing Authority",13.907176,100.673079
47,868333031255249,สำนักงานเคหะจังหวัดนครปฐม สาขา1 (โครงการบ้านเอื้ออาทรนครชัยศรี(ท่าตำหนัก)) การเคหะแห่งชาติ,"Nakhonpathom Provincial Office 1 (Baan Ua Arthorn Nakhonchasi Project (Tha-Tamnak)), National Housing Authority",13.782495,100.175793
48,868333031264910,สำนักงานเคหะจังหวัดปทุมธานี 3 (โครงการบ้านเอื้ออาทรลาดหลุมแก้ว 2) การเคหะแห่งชาติ,"Pathum Thani Provincial Office 3 (Baan Ua Arthorn Housing Project, Latlumkaew 2), National Housing Authority",14.035671,100.492149
49,868333031264712,สำนักงานเคหะนครหลวงสาขาบ่อนไก่  (โครงการเคหะชุมชนบ่อนไก่) การเคหะแห่งชาติ,"Bonkai Metropolitan Office (Bonkai Community Housing Project), National Housing Authority",13.727529,100.551359
50,868333031267228,(11) สำนักงานเคหะจังหวัดสมุทรปราการ สาขา 3 (โครงการบ้านเอื้ออาทรบางโฉลง) การเคหะแห่งชาติ,"(11) Samutphakarn Provincial Office 3 (Baan Ua Arthorn Bangchalong Project), National Housing Authority",13.60127,100.74985
51,868333031268507,วิศวกรรมสถานแห่งประเทศไทย ในพระบรมราชูปถัมภ์,Council of Engineers Thailand,13.76368,100.606561
53,868333031254853,สำนักงานเคหะจังหวัดนนทบุรี สาขา1 (โครงการบ้านเอื้ออาทรนนทบุรี) การเคหะแห่งชาติ,"Nonthaburi Provincial Office 1 (Baan Ua Arthorn Nonthaburi Project), National Housing Authority",13.914023,100.504652
54,868333031256411,โรงเรียนสาธิตจุฬาลงกรณ์มหาวิทยาลัยฝ่ายมัธยม - อาคารอเนกประสงค์,"Multipurpose Building, Chulalongkorn University Demonstration Secondary School",13.735687,100.527704
55,868333031261064,โรงเรียนสาธิตจุฬาลงกรณ์มหาวิทยาลัยฝ่ายมัธยม - อาคาร 3,"Building 3, Chulalongkorn University Demonstration Secondary School",13.735982,100.526915
56,868333031256056,อาคารอานันทมหิดล คณะแพทยศาสตร์ จุฬาลงกรณ์มหาวิทยาลัย,"Ananda Mahidol Building, Faculty of Medicine, Chulalongkorn University",13.733122,100.535482
57,868333031262260,โรงพยาบาลกรุงเทพ (ซอยศูนย์วิจัย),Bangkok Hospital (Soi Soonvijai),13.74875,100.58323
58,868333031271154,อาคาร อปร. คณะแพทยศาสตร์ จุฬาลงกรณ์มหาวิทยาลัย,"H.M. King Ananda Mahidol Building, Faculty of Medicine, Chulalongkorn University",13.733006,100.537903
59,868333031266493,หอสมุดคณะแพทยศาสตร์ จุฬาลงกรณ์มหาวิทยาลัย,MDCU Library,13.732665,100.53642
60,868333031268358,(1) อาคาร 2 โครงการบ้านเอื้ออาทรบางโฉลง,(1) Building 2 Baan Ua Arthorn Bangchalong Project,13.60259,100.74779
61,868333031262690,(2) อาคาร 6 โครงการบ้านเอื้ออาทรบางโฉลง,(2) Building 6 Baan Ua Arthorn Bangchalong Project,13.60233,100.74806
62,868333031224807,(3) อาคาร 8 โครงการบ้านเอื้ออาทรบางโฉลง,(3) Building 8 Baan Ua Arthorn Bangchalong Project,13.60166,100.74764
63,868333031252881,(9) อาคาร 17 โครงการบ้านเอื้ออาทรบางโฉลง,(9) Building 17 Baan Ua Arthorn Bangchalong Project,13.60089,100.74932
64,868333031261247,(8) อาคาร 92 โครงการบ้านเอื้ออาทรบางโฉลง,(8) Building 92 Baan Ua Arthorn Bangchalong Project,13.600269,100.748803
65,868333031262732,*(7) อาคาร 40 โครงการบ้านเอื้ออาทรบางโฉลง,(7) Building 40 Baan Ua Arthorn Bangchalong Project,13.6024,100.74972
66,868333031256106,(6) อาคาร 35 โครงการบ้านเอื้ออาทรบางโฉลง,(6) Building 35 Baan Ua Arthorn Bangchalong Project,13.602624,100.748752
67,868333031266329,(4) อาคาร 11 โครงการบ้านเอื้ออาทรบางโฉลง,(4) Building 11 Baan Ua Arthorn Bangchalong Project,13.60095,100.74824
69,868333031262559,(16) อาคาร 64 โครงการบ้านเอื้ออาทรบางโฉลง,(16) Building 64 Baan Ua Arthorn Bangchalong Project,13.601253,100.752114
70,868333031270719,(20) อาคาร 87 โครงการบ้านเอื้ออาทรบางโฉลง,(20) Building 87 Baan Ua Arthorn Bangchalong Project,13.59968,100.75038
71,868333031262369,(17) อาคาร 79 โครงการบ้านเอื้ออาทรบางโฉลง,(17) Building 79 Baan Ua Arthorn Bangchalong Project,13.600479,100.751131
72,868333031256288,(18) อาคาร 74 โครงการบ้านเอื้ออาทรบางโฉลง,(18) Building 74 Baan Ua Arthorn Bangchalong Project,13.6005,100.751526
73,868333031255322,(19) อาคาร 71 โครงการบ้านเอื้ออาทรบางโฉลง,(19) Building 71 Baan Ua Arthorn Bangchalong Project,13.600112,100.751852
74,868333031267129,(5) อาคาร 31 โครงการบ้านเอื้ออาทรบางโฉลง,(5) Building 31 Baan Ua Arthorn Bangchalong Project,13.601893,100.748734
75,868333031251800,(12) อาคารสำนักงาน เคหะชุมชนบางโฉลง,(12) Bangchalong Metropolitan Office,13.60125,100.74993
76,868333031257831,(10) อาคาร 27 โครงการบ้านเอื้ออาทรบางโฉลง,(10) Building 27 Baan Ua Arthorn Bangchalong Project,13.60145,100.749311
77,868333031254515,ซอยเพชรเกษม 43 บางแค,"Soi Phetkasem 43, Bang Khae",13.708905,100.41382
78,868333031244573,(13) อาคาร 47 โครงการบ้านเอื้ออาทรบางโฉลง,(13) Building 47 Baan Ua Arthorn Bangchalong Project,13.6026,100.75089
79,868333031251776,(15) อาคาร 57 โครงการบ้านเอื้ออาทรบางโฉลง,(15) Building 57 Baan Ua Arthorn Bangchalong Project,13.6019,100.75163
80,868333031254556,(14) อาคาร 56 โครงการบ้านเอื้ออาทรบางโฉลง,(14) Building 56 Baan Ua Arthorn Bangchalong Project,13.60266,100.75218
81,868333031270040,สถานีควบคุมไฟป่าห้วยฮ่องไคร้ - ขุนแม่กวง จ.เชียงใหม่,"Huai Hong Khrai - Khun Mae Kuang Forest fire Control Station, Chiang Mai",18.85083,99.21875
82,868333031252642,ศูนย์ศึกษาการพัฒนาห้วยฮ่องไคร้ จ.เชียงใหม่,"Huai Hong Khrai Royal Development Study Centre, Chiang Mai",18.87813,99.21817
83,868333031258961,ตำบลไร่ขิง อำเภอสามพราน (ทีพีบีไอ),"Rai Khing, Sam Phran (TPBI)",13.718339,100.271097
84,868333031253012,ป้ายวัดคุณภาพอากาศ การเคหะแห่งชาติบางโฉลง,Air Quality Display - NHA Bang Chalong,13.601461,100.748024
85,868333031274315,ปตท.บางชัน,PTT Bangchan,13.802451,100.709579
86,868333031269919,ปตท.วังน้อย,PTT Wangnoi,14.287386,100.814466
87,868333031256346,สวนพฤกษศาสตร์ทวีชล,Horizon village and resort Chiang Mai,18.860464,99.095212
88,868333031263466,บมจ. ทีพีบีไอ (สาขาระยอง),TPBI Public Company Limited (Rayong),12.866735,101.085428
89,868333031267202,บจก. ทีเอเค แพ็คเกจจิ้ง (สาขาบางช้าง),TAK Packaging Company limited,13.68212,100.22692
90,868333031250919,ปตท.สุขสวัสดิ์,PTT Suksawat,13.616543,100.546527
91,868333031258847,อาคารอินเทค สันเขื่อนรัชชประภา,Rajjaprabha Dam,8.972277,98.803694
92,868333031254705,โรงเรียนบรรจงรัตน์,Banjonrat School,14.796785,100.645399
93,868333031258755,สถานีทดสอบ 150,Test Station  150,NULL,NULL
95,868333031238146,สถานีทดสอบ 152,Test station 152,NULL,NULL
96,868333031260561,สถานีทดสอบ 153,Test station 153,NULL,NULL
97,868333031260553,สถานีทดสอบ 151 (ตรัง),Test station 151,NULL,NULL
98,868333031255025,สถานีตำรวจนครบาลประชาชื่น,Prachachuen Police Station,13.84231,100.54717
99,868333031262302,สถานีทดสอบ 155,Test station 155,NULL,NULL
100,868333031259043,โรงเรียนบางละมุง,Banglamung School,12.978403,100.914485
102,868333031266204,โรงพยาบาลเถิน,Thoen Hospital,17.637041,99.240377
104,868333031227537,โรงเรียนคลองพานทอง,Klongpanthong School,13.474728,101.006775
105,868333031236850,โรงพยาบาลแจ้ห่ม,Chae Hom Hospital,18.707916,99.554231
106,868333031241587,ศูนย์พัฒนาเด็กเล็ก ตำบลบางผึ้ง,Bang Phueng Child Development Center,13.533416,101.040774
107,868333031249093,โรงเรียนบ้านนนท์,Bannon School,6.949548,100.719895
108,868333031254796,คุณสายชล สันเขื่อนสิริกิติ์,Sirikit Dam,17.767062,100.566225
109,868333031254945,โรงไฟฟ้าเขื่อนแก่งกระจาน,Kang Krachan Hydro Power Plant,12.915052,99.630305
110,868333031254952,โรงพยาบาลแม่ทะ,Mae Tha Hospital,18.156994,99.539596
112,868333031256403,ศาลากลางน้ำ เขื่อนท่าทุ่งนา,Tha Thung Na Dam,14.233651,99.235055
113,868333031258672,โรงเรียนวัดบางแสม,Wat Bangsamae School,13.49145,101.017942
114,868333031258722,สถานีสูบน้ำหนองแค โรงไฟฟ้าวังน้อย,Nong Khae pumping station (Wangnoi Power Plant),14.331443,100.872881
115,868333031258730,โรงเรียนวัดบางฝ้าย,Wat Bang Fai School,13.62144,100.553047
116,868333031258946,โรงเรียนมัธยมสิริวัณวรี ๓ ฉะเชิงเทรา,Matthayom Siriwanwaree 3 Chachoengsao,13.379315,101.695426
117,868333031259076,วัดควนไม้ไผ่ (เก่า),Wat Kuan Mai Pai ,6.917996,100.642352
118,868333031259175,โรงเรียนวัดบางหัวเสือ,Wat Bang Hua Suea School,13.627983,100.54853
119,868333031259399,โรงเรียนวัดสว่างอารมณ์,Wat Sawang Arom School,14.216829,100.7642
120,868333031259456,สำนักงานเทศบาลตำบลท่าข้าม,Thakham Sub District Municipality,13.479186,100.994136
121,868333031259464,สันเขื่อนอุบลรัตน์,Ubolratana Dam,16.774043,102.618277
122,868333031262377,ศูนย์การเรียนรู้ กฟผ. สำนักงานกลาง,EGAT Learning Center Headquarters,13.812895,100.51172
124,868333031266352,โรงเรียนวัดบางด้วน,Wat Bang Duan School,13.617443,100.573473
125,868333031266402,โรงเรียนวัดจุฬาจินดาราม,Watchula Jindaram School,14.231747,100.800704
126,868333031266485,โรงเรียนเทศบาลคำใหญ่ปันน้ำใจ,Khamyai Punnamjai Municipal School,16.672226,102.764458
127,868333031266519,วัดทุ่งพระ,Wat Thung Pra,6.926328,100.706529
129,868333031267244,ศูนย์การเรียนรู้ กฟผ. ลำตะคอง,EGAT Learning Center Lamtakong,14.831999,101.56638
130,868333031269661,โรงเรียนสุวพรรณสนิทวงศ์พิทยา,Suwapan Sanitwong Pittaya School,14.251529,100.770596
131,868333031271667,รพ.สต.บางสีทอง,Bang Si Thong Sub-District Health Promoting Hospital,13.81969,100.483332
132,868333031274257,สถานีทดสอบ บางเดื่อ 1,สถานีทดสอบ บางเดื่อ 1,NULL,NULL
133,868333031255066,สันเขื่อนภูมิพล,Bhumibol Dam,17.244089,98.973506
134,868333031256239,กฟผ. สำนักงานไทรน้อย,EGAT Sai Noi Office,13.974956,100.344772
135,868333031260546,โรงเรียนหิรัญพงษ์อนุสรณ์,Hirunpong anusorn School,14.206127,100.801653
136,868333031270826,โรงพยาบาลวังเหนือ,Wang Nuea Hospital,19.146584,99.615963
137,868333031256296,เรือนน้ำพรม เขื่อนจุฬาภรณ์,Chulabhorn Dam,16.530239,101.647078
138,868333031255009,สถานีทดสอบ 158,Test station 158,NULL,NULL
139,868333031259092,วัดบำรุงธรรมราษฎร์ศรัทธาราม (วัดล่าง),Wat Bumrung Thummarart Satharam,13.502857,100.988359
140,868333031259225,โรงไฟฟ้ากระบี่,Krabi Power Plant,7.994743,99.044809
141,868333031259498,วัดควนมิตร,Wat Kuan Mit,6.973682,100.671012
142,868333031267426,สถานีตรวจวัดคุณภาพอากาศบ้านคลองหวายเล็ก,Ban Klongwailek Ambient Air Quality Monitoring Station,7.962033,99.05563
143,868333031268481,รพ.สต.บ้านท่าสี,Ban Tha Si Sub-District Health Promotion Hospital,18.42699,99.757784
144,868333031259480,โรงพยาบาลส่งเสริมสุขภาพ ตำบลหนองโรง,Health Promoting Hospital Tambon Nong Rong,14.27486,100.824703
145,868333031260587,สันเขื่อนวชิราลงกรณ,Vajiralongkorn Dam,14.797244,98.592808
146,868333031267822,สันเขื่อนสิรินธร,Sirindhorn Dam,15.204183,105.424873
147,868333031268382,สถานีตรวจวัดคุณภาพอากาศบ้านเกาะโพด,Ban Kohpod Ambient Air Quality Monitoring Station,7.973226,99.010562
148,868333031268440,โรงพยาบาลส่งเสริมสุขภาพตำบลโคกสูง,Khok Sung Sub-district Health Promoting Hospital,16.681424,102.7069
149,868333031259290,เขื่อนน้ำพุง,Nam Pung Dam,17.06979,103.94381
150,868333031259357,อาคารพลับพลา สันเขื่อนศรีนครินทร์,Srinagarind Dam,14.40705,99.12609
151,868333031260611,โรงพยาบาลแม่พริก,Mae Prik Hospital,17.445467,99.158686
152,868333031266964,อาคารควบคุมกังหันลมระยะที่ 1,Wind turbine control Building phase 1,14.799626,101.558057
153,868333031274166,โรงเรียนวัดสวนส้ม,Wat Suan Som School,13.63502,100.574334
154,868333031255074,รพ.สต.วัดโชติการาม,Wat Chotikaram Sub-District Health Promoting Hospital,13.825798,100.487437
155,868333031255157,เขื่อนแม่งัดสมบูรณ์ชล,Mae Ngat Somboon Chon Dam,19.161737,99.039489
156,868333031264175,โรงเรียนบ้านคำบอนคุรุราษฏร์บำรุง,Ban Khambonkururatbumrung School,16.719579,102.721885
157,868333031267038,โรงพยาบาลส่งเสริมสุขภาพตำบลกุดน้ำใส,Kudnamsai Sub-district Health Promoting Hospital,16.698605,102.783749
158,868333031268200,Test EGAT 50,Test EGAT 50,NULL,NULL
159,868333031255165,ศูนย์การเรียนรู้ กฟผ. แม่ออน,EGAT Learning Center Mae On,18.79138,99.242549
160,868333031256858,เขื่อนบางลาง,Bang Lang Dam,6.15516,101.272477
161,868333031256874,โรงเรียนบ้านทุ่งสาคร,Ban Thung Sakhon School,7.999542,99.07449
162,868333031268390,ศูนย์การเรียนรู้ กฟผ. ทับสะแก,EGAT Learning Center Thap Sakae,11.476111,99.596389
164,868333031266923,โรงเรียนหนองบัววิทยายน,Nongbuawittayayon School,17.202024,102.443
165,868333031262724,โรงเรียนพะเยาพิทยาคม,Phayao Pittayakhom School,19.168832,99.908733
166,868333031262443,โรงเรียนพิริยาลัยจังหวัดแพร่,Piriyalai School Phrae Province,18.141793,100.14801
167,868333031259027,โรงเรียนอนุบาลวัดสระแก้ว,Anubanwatsakaeo School,13.819968,102.066574
168,868333031259613,โรงเรียนระยองวิทยาคม,Rayongwittayakom School,12.667677,101.274631
169,868333031271550,โรงเรียนสันป่าตองวิทยาคม,Sanpatong Wittayakom School,18.595619,98.87627
170,868333031256494,Test EGAT 62,Test EGAT 62,NULL,NULL
171,868333031256692,Test EGAT 63,Test EGAT 63,NULL,NULL
172,868333031259522,โรงเรียนเชียงของวิทยาคม,Chiangkhongwittayakom School,20.244083,100.412194
173,868333031266238,โรงเรียนอนุบาลแม่ฮ่องสอน,Anubanmaehongson School,19.310412,97.964041
174,868333031266386,โรงเรียนมัธยมพัชรกิติยาภา 2,Matthayom Bhatcharakitiyabha 2,16.53652,99.968171
175,868333031270768,Test EGAT 67,Test EGAT 67,NULL,NULL
176,868333031256817,โรงเรียนท่าปลาประชาอุทิศ,Thaplapracha-u-this School,17.78821,100.37938
177,868333031271832,โรงเรียนราชานุบาล,Rachanuban School,18.77561,100.768738
178,868333031271493, โรงเรียนอนุบาลพิจิตร,Anubanphichit School,16.442358,100.346897
179,868333031271378,โรงเรียนอนุบาลกาฬสินธุ์,Anuban Kalasin School,16.427564,103.508826
180,868333031271402,โรงเรียนฝางชนูปถัมภ์,Fang Chanupatham School,19.864354,99.177647
181,868333031259308,Test EGAT 73,Test EGAT 73,NULL,NULL
182,868333031270784,โรงเรียนเชียงคำวิทยาคม,Chiangkham Wittayakhom School,19.518428,100.31123
183,868333031259415,โรงเรียนอนุบาลชัยภูมิ,Anuban Chaiyaphum School,15.805108,102.018627
184,868333031268234,*****โรงเรียนอนุบาลร้อยเอ็ด,Anuban Roi Et School,16.052147,103.65968
185,868333031259068,โรงเรียนศรีสงครามวิทยา,Srisongkramwittaya School,17.300882,101.790582
186,868333031257021,โรงเรียนเบ็ญจะมะมหาราช,Benchama Maharat School,15.2389,104.8384
187,868333031255082,วัดควนไม้ไผ่,Wat Kuan Mai Pai ,6.917996,100.642352
189,868333031264662,โรงไฟฟ้าบ้านขุนกลาง,Ban Khun Klang Power Plant,18.541825,98.517977
190,868333031256528,สถานีทดสอบ บางเดื่อ 2,สถานีทดสอบ บางเดื่อ 2,NULL,NULL
191,868333031254606,Test EGAT 81,Test EGAT 81,NULL,NULL
192,868333031254663,โรงเรียนอนุบาลเพชรบูรณ์,Anubanphetchabun School,15.6833,100.1167
193,868333031255124,Test EGAT 83,Test EGAT 83,NULL,NULL
194,868333031255850,โรงเรียนอนุบาลมุกดาหาร,Anuban Mukdahan School,16.537775,104.719226
195,868333031256114,โรงเรียนมัธยมพัชรกิติยาภา ๑ นครพนม,Matthayom Bajrakitiyabha 1 Nakhon Phanom,17.121218,104.60753
196,868333031256437,โรงเรียนโรซารีโอวิทยา,Rosario wittaya School,17.800385,102.673646
197,868333031261916,โรงเรียนสารคามพิทยาคม,Sarakhampittayakhom School,16.193451,103.289833
198,868333031268077,ศูนย์การเรียนรู้ สพป.ขอนแก่น เขต 3,Green Learning Center Khon Kaen,15.810125,102.585112
199,868333031269828,Test EGAT 89,Test EGAT 89,NULL,NULL
200,868333031271774,Test EGAT 90,Test EGAT 90,NULL,NULL
201,868333031271816,โรงเรียนเบญจมราชรังสฤษฎิ์,Benchamaratrangsarit School,13.69188,101.076414
202,868333031271840,Test EGAT 92,Test EGAT 92,NULL,NULL
203,868333031271881,โรงเรียนอนุบาลนครราชสีมา,Anubannakhonratchasima School,14.9804,102.100329
204,868333031274141,โรงเรียนอนุบาลนครพนม,Anuban Nakhon Phanom School,17.40466,104.78214
205,868333031255314,Test EGAT 95,Test EGAT 95,NULL,NULL
206,868333031256221,Test EGAT 96,Test EGAT 96,NULL,NULL
207,868333031259266,โรงเรียนศรีจอมทอง,Srichomthong School,18.416344,98.675583
208,868333031259571,โรงเรียนบ้านไผ่,Banphai School ,16.072254,102.733283
209,868333031260231,โรงเรียนประสาทวิทยาคาร,Prasatwittayakarn School,14.639985,103.409588
210,868333031262286,โรงเรียนอนุบาลพิษณุโลก,Anuban Phitsanulok,16.842228,100.263991
211,868333031266428,โรงเรียนอนุบาลอุดรธานี,Anuban Udonthani School,17.40855,102.779934
212,868333031268465,โรงเรียนศรีสะเกษวิทยาลัย,Sisaketwittayalai School,15.111844,104.324492
213,868333031267079,โรงเรียนสีคิ้วสวัสดิ์ผดุงวิทยา,Sikhiu Sawadphadungwittaya School,14.89075,101.72222
214,868333031270123,โรงเรียนตราษตระการคุณ,Trattrakarnkhun School,12.23743,102.52606
215,868333031271857,โรงเรียนวัดคูยาง,Watkuyang School,16.477842,99.529972
216,868333031274240,"โรงเรียนหนองโตง ""สุรวิทยาคม""",Nongtong Surawitthayakhom School,14.869683,103.484528
217,868333031255389,"โรงเรียนแม่สะเรียง ""บริพัตรศึกษา""",Maesariang Boripatsuksa School,18.18101,97.92823
218,868333031256148,โรงเรียนหล่มเก่าพิทยาคม,Lom Kao Pittayakhom School,16.871578,101.244169
219,868333031256908,โรงเรียนกันทรลักษ์วิทยา,Kantharalakwittaya School,14.635556,104.649167
220,868333031257047,โรงเรียนส่วนบุญโญปถัมภ์,Suanboonyopatham,18.573002,99.001149
221,868333031257435,Test EGAT 111,Test EGAT 111,NULL,NULL
222,868333031259183,โรงเรียนบ้านสันติคีรี,Bansantikeeree School,20.15816,99.623193
223,868333031259852,โรงเรียนชุมแพศึกษา ขอนแก่น,Chumphaesuksa School Khonkaen,16.540824,102.112762
224,868333031267186,โรงเรียนอุดมดรุณี,Udomdarunee School,17.013682,99.819786
225,868333031268127,โรงเรียนแม่เมาะวิทยา,Maemoh Wittaya School,18.278576,99.654975
226,868333031271147,โรงเรียนปราจีนกัลยาณี,Prachinkallayanee School,14.050993,101.371729
227,868333031271535,โรงเรียนอนุบาลลำปาง (เขลางค์รัตน์อนุสรณ์),Anuban Lampang (Khelangrat Anusorn) School,18.298128,99.497808
228,868333031271865,Test EGAT 118,Test EGAT 118,NULL,NULL
229,868333031255298,โรงเรียนมัธยมสิริวัณวรี ๑ อุดรธานี,MatthayomSiriwanwari 1 Udonthani School,17.433536,102.731829
230,868333031259837,โรงเรียนเมืองอำนาจเจริญ,Muang Amnatcharoen School,15.878277,104.620129
231,868333031262252,โรงเรียนตากพิทยาคม,Takpittayakhom School,16.868793,99.129909
232,868333031262666,โรงเรียนราชปิโยรสา ยุพราชานุสรณ์,Rajapiyorasa Yupparachanusorn School,19.12059,100.81023
233,868333031267160,โรงเรียนศรียานุสรณ์,Siyanuson School,12.612753,102.109969
234,868333031271758,โรงเรียนอนุบาลศรีสัชนาลัย (บ้านหาดสูง),Anubansrisatchanalai (Banhadsung),17.523482,99.760155
235,868333031273234,Test EGAT 125,Test EGAT 125,NULL,NULL
236,868333031259944,Test PNUT,Test PNUT,NULL,NULL
238,868333031267012,ปตท. หจก.สวัสดิ์ไพบูลย์สเตชั่น ต.โพธิ์ทอง,PTT Sawatpaiboon Station Limited Partnership,16.110733,99.509261
239,868333031267277,เอสโซ่ หจก.ศรีอุบลบริการ ต.คลองน้ำไหล,Esso Gas station Sri Ubon Service Company Limited,16.199528,99.331989
240,868333031267376,สำนักงานพลังงานจังหวัดเชียงราย,Chiang Rai Provincial Energy Office,19.927563,99.870137
241,868333031267897,(รอเปลี่ยนจุด)ที่ทำการอุทยานแห่งชาติดอยหลวง,Doi Luang National Park,19.443939,99.703144
242,868333031270008,สำนักงานป้องกันและบรรเทาสาธารณภัย อ.เวียงป่าเป้า,Department of Disaster Prevention and Mitigation Wiang Pa Pao,19.347662,99.50778
243,868333031271808,คาลเท็กซ์ หจก.วัชรเกียรติออยล์,Caltex Gas station Watcharakiat Oil Company Limited,16.4751,99.55346
244,868333031259886,ปตท. แม่ริม,PTT Gas station Mae Rim,18.921545,98.940443
245,868333031268176,ปตท. อำเภอเมือง,PTT Gas station Muang District,18.763884,98.991395
246,868333031270701,ปตท. มหาวิทยาลัยพายัพ,PTT Gas station Payap University ,18.794244,99.036332
247,868333031271683,อาคารหอประชุม ศาลากลางจังหวัดตาก,อาคารหอประชุม ศาลากลางจังหวัดตาก,16.885302,99.124809
248,868333031271766,สนามกีฬาองค์การบริหารส่วนจังหวัดตาก,สนามกีฬาองค์การบริหารส่วนจังหวัดตาก,16.875211,99.138547
249,868333031273242,เทศบาลนครแม่สอด,Maesot City Municipality,16.722132,98.567594
251,868333031254812,เทศบาลตำบลเวียงสา,Wiang Sa Building,18.570911,100.751085
252,868333031255462,เทศบาลตำบลนาน้อย,Nanoi Building,18.325866,100.712151
253,868333031261783,สำนักงานเทศบาลตำบลบ่อเกลือใต้,Borklertai Building,19.079969,101.153705
254,868333031266915,วัดอนาลโยทิพยาราม,Wat Analayo Thipayaram,19.177919,99.81266
255,868333031267095,ปั้มเอสโซ่ อ.เมือง จ.พะเยา,Esso Gas station Muang District,19.172816,99.905863
256,868333031271204,ปตท. เชียงม่วน,Chiang Muan PTT Gas station,18.894738,100.286071
258,868333031256882,สนามกีฬาจังหวัดพิจิตร,Phichit Provincial Stadium,16.443101,100.324042
259,868333031259514,ศูนย์ส่งเสริมอุตสาหกรรมภาคที่ 3,Industrial Promotion Center Region 3,16.428647,100.35327
260,868333031260504,องค์การบริหารส่วนตำบลดงเสือเหลือง,Dong Suea Lueang Sub District Administration Organization,16.257796,100.126312
261,868333031260652,มัสยิดปากีสถาน พิษณุโลก,Phitsanulok Pakisatan Mosque,16.820604,100.266236
262,868333031267459,เทศบาลตำบลปลักแรด,Plakrad Municipal District,16.683188,100.100324
263,868333031267939,สถานีบริการน้ำมันเชื้อเพลิง บ.ปาวราภัทร ออยล์,Pavarapat Oil Company Limited,16.826395,100.254779
264,868333031254655,เขาค้อ วินด์ พาวเวอร์,Khaokor Wind Power,16.698927,100.987909
265,868333031259977,สำนักงานพลังงานจังหวัดเพชรบูรณ์,Energy office Phetchabun,16.439526,101.154577
266,868333031266840,บริษัท เพชรชมภูปิโตรเลียม จำกัด,Phetchomphu Petroleum Company Limited,16.204412,101.09001
267,868333031267855,วัดพระธาตุช่อแฮ,Wat Phra That Cho Hae,18.086093,100.204701
268,868333031270628,เทศบาลตำบลร้องกวาง,Rong Kwang Subdistrict Municipality,18.33371,100.314367
269,868333031261627,องค์การบริหารส่วนตำบลต้าผามอก,Ta Pha Mok Subdistrcit Administrative Organization,18.158909,99.942224
270,868333031255215,(Test) ที่ว่าการอำเภอปาย,(Test) ที่ว่าการอำเภอปาย,19.35907,98.440191
271,868333031259167,โรงไฟฟ้าดีเซลผาบ่อง,Maehongson Diesel Powerplant,19.183376,97.984281
272,868333031267962,น้ำพุร้อนผาบ่อง,Pha Bong Hot Spring,19.211176,97.979706
273,868333031268184,สำนักงานสาธารณสุขอำเภอสบปราบ,Sop Prap District Public Health Office,17.881281,99.337498
274,868333031270925,โรงเรียนประชารัฐธรรมคุณ,Pracharat Thammakhun School,18.761617,99.984257
275,868333031268135,สำนักงานพลังงานจังหวัดลำปาง,Energy office Lampang,18.258343,99.54465
276,868333031259431,ปตท. บ้านกลาง,PTT Gas station Banklang,18.583293,99.056463
277,868333031259506,ปตท. ประตูโขง,PTT Gas station Pratu Khong,18.570725,99.045358
278,868333031259563,สุชาติแก๊ส อ.เมือง,Suchart Gas Muang District,18.574273,99.003385
280,868333031261734,เทศบาลตำบลเมืองเก่า,Mueang Kao Municipal District,17.018666,99.714118
281,868333031267947,ตลาดสดเทศบาลเมืองศรีสัชนาลัย,Si satchanalai Municipality Food Market,17.400939,99.803848
282,868333031271576,(รอเปลี่ยนจุด)อุทยานแห่งชาติรามคำแหง,Ramkhamheang National Park,16.877292,99.692939
283,868333031260421,องค์การบริหารส่วนตำบลม่วงเจ็ดต้น,Muang Chet Ton Sub District Administration Organization,18.098801,101.126261
284,868333031260447,ศาลพระยาพิชัย,Phraya Phichai Shrine,17.289095,100.087755
285,868333031270966,มหาวิทยาลัยราชภัฏอุตรดิตถ์ เขตทุ่งกะโล่,Uttaradit Rajabhat University ,17.620963,100.150421
289,868333031268218,สถานีป้องกันและบรรเทาสาธารณะภัย ศูนย์เมืองแพ,Muangphea Subdivision of Disaster Prevention and Mitigation Center,16.543963,102.099615
290,868333031268333,สวนสัตว์ขอนแก่น,Khonkaen Zoo,16.845329,102.896036
292,868333031268028,สำนักทะเบียนท้องถิ่น สำนักงานเทศบาลเมืองกาฬสินธุ์,"Local Registry Office, Kalasin Town Municipality",16.433957,103.509286
293,868333031269570,พิพิธภัณฑ์สิรินธร,Sirindhorn Museum,16.692441,103.524524
294,868333031269620,โรงงานน้ำตาลมิตรกาฬสินธุ์,Mitr Kalasin Sugar Factory,16.461935,104.040551
295,868333031269646,บริษัท ณัฐพล ทรัคส์ แอนด์ ออยล์ จำกัด,Nattapol Trucks and Oil Company Limited,16.725135,103.081309
296,868333031269893,อุทยานแห่งชาติตาดโตน,Tat Ton National Park Chaiyaphum,15.981366,102.036247
297,868333031270834,ปั๊มน้ำมันคาลเท็กซ์ บายพาสชัยภูมิ (หจก.ขวัญไทยปิโตรเลียม),Caltex Gas station (bypass) Chaiyaphum,15.820324,102.059997
299,868333031256668,บริษัท มิตรผล ไบโอ-เพาเวอร์ จำกัด,"Mitr Phol Bio-Power Co., Ltd. Chaiyaphum",16.482312,102.121797
300,868333031268168,บริษัท โซล่า เพาเวอร์ ( นครพนม 2 ) จำกัด,Sola Power (Nakhon Phanom 2) Company Limited,17.300583,104.449218
301,868333031269836,โรงแรมชิค-ชิดโขง แอนด์ คาเฟ่,Chic-ChidKong Hotel&Cafe,17.399586,104.789971
302,868333031256577,วัดพระธาตุพนมวรมหาวิหาร,Wat Phra That Phanom Woramahawihan,16.941996,104.724027
303,868333031255660,สำนักงานพลังงานจังหวัดนครราชสีมา,Provincial Energy Office of Nakhonratchasima,15.000753,102.117625
306,868333031269711,เขตห้ามล่าพันธุ์สัตว์ป่าบึงโขงหลง,Bueng Khong Long Non-Hunting Area,18.021934,104.014242
307,868333031269760,ป่านันทนาการหินสามวาฬ,Three Whale Rocks Recreation Forest,18.274271,103.796594
308,868333031269927,สถานีควบคุมไฟป่าภูวัว-ภูลังกา,Phuwua Phulangka Forest Fire Control Station,18.287876,103.89112
311,868333031255652,สำนักงานนครราชสีมา การไฟฟ้าฝ่ายผลิตแห่งประเทศไทย,Nakhonratchasima 1 High Voltage Substation,14.993837,102.101909
312,868333031257039,"โรงไฟฟ้าหนองระเวียง 1,2 (Gulf NRV1,2)","Gulf NRV Company Limited (NRV1,2)",14.927901,102.176211
313,868333031256866,สี่แยกตลาดสดเทศบาลเมืองบุรีรัมย์ (ถนนสุนทรเทพ),Buriram Municipality Market (Soonthornthep Road),14.998977,103.110648
314,868333031268556,ถนนคนเดินเซราะกราว (สี่แยกตลาดไนท์บาซาร์ ถนนจิระ),"The So Krao Walking Street (Night Bazaar Intersection, Chira Road)",14.994442,103.108333
315,868333031269901,สถานีขนส่งผู้โดยสารจังหวัดบุรีรัมย์,Bus Terminal Buriram ,14.995854,103.096193
316,868333031271337,(Test) บริเวณแยกไฟแดงโรงพยาบาลมหาสารคาม,(Test) บริเวณแยกไฟแดงโรงพยาบาลมหาสารคาม,16.182247,103.30035
317,868333031273812,(Test) บริเวณแยกไฟแดงวัดศรีสวัสดิ์,(Test) บริเวณแยกไฟแดงวัดศรีสวัสดิ์,16.195149,103.280179
318,868333031260280,(Test) พระบรมธาตุนาดูน, (Test) พระบรมธาตุนาดูน,15.923983,103.108805
320,868333031260413,ห้างหุ้นส่วนจำกัด ศรีบุญเรืองบริการ ปิโตรเลียม,Sheeboonrueang Borikan Pitoliem Limited Partnership,16.534322,104.731271
322,868333031230143,ห้างหุ้นส่วนจำกัดนพผดุงบริการ (มุกดาหาร),Nopbhadung Service (Mukdahan) Limited Partnership,16.551685,104.719146
323,868333031230820,อาคารสำนักงานใหญ่ บริษัท สหเรือง จำกัด,The Saha Ruang Company Limited,16.600063,104.695973
324,868333031266998,อาคารศูนย์เรียนรู้ เทศบาลเมืองยโสธร,Learning Center Yasothon Municipality,15.796068,104.141915
325,868333031269257,ศาลากลางบ้านเซียงเพ็ง หมู่7,Ban Xiang Peng City Hall Moo7,15.828945,104.440457
326,868333031274026,ธาตุก่องข้าวน้อย ตำบลตาดทอง,"That Kong Khao Noi, Tat Thong Sub-district",15.76389,104.20725
327,868333031248442,(Test) สี่่แยกไฟแดงโรงเรียนอนุบาลร้อยเอ็ด,(Test) สี่่แยกไฟแดงโรงเรียนอนุบาลร้อยเอ็ด,16.0311,103.3931
328,868333031261346,(Test) โรงไฟฟ้าร้อยเอ็ดกรีน,(Test) โรงไฟฟ้าร้อยเอ็ดกรีน,16.0516,103.3829
329,868333031268192,หอโหวด 101,Roi Et Tower,16.055184,103.652218
330,868333031273259,ศาลากลางจังหวัดเลย,Loei City Hall,17.486586,101.721607
331,868333031274067,โรงงานน้ำตาลมิตรภูหลวง อ.วังสะพุง,Mitrphol Phu Luang Sugar Wang Saphung District,17.193592,101.829351
333,868333031267020,ที่ว่าการอำเภอเชียงคาน ,Chiang Khan District office,17.898062,101.666221
335,868333031255553,ตลาดสดเทศบาล 1 ตำบลเมืองเหนือ,Municipal 1 Market Mueang Nuea Sub-district,15.116739,104.329699
336,868333031257112,หจก.จอมพระปิโตรเลียม,Chom Phra Petroleum LP Surin,15.101511,103.59531
337,868333031266832,สำนักงานเทศบาลเมืองศรีสะเกษ ตำบลเมืองใต้,"Mueang Sisaket Municipality Office, Muang Tai Subdistrict",15.107311,104.328931
338,868333031266899,(รอเปลี่ยนจุด)วัดถ้ำผาแด่น,Wat Tham Pha Daen,17.030828,104.072353
339,868333031266972,โรงพยาบาลสมเด็จพระยุพราชสว่างแดนดิน,Sawang Dandin Crown Prince Hospital,17.478583,103.458112
340,868333031268226,บ.ไทยรุ่งเรืองอุตสาหกรรมจำกัด สาขาสกลนคร,"Thai Roong Ruang Industry Company Limited, Sakon Nakhon",17.365202,104.09886
341,868333031266824,สวนสาธารณะเฉลิมพระเกียรติห้วยน้ำคำ (เกาะกลางน้ำ),Huai Nam Kham Chaloem Phrakiat Public Park (Klang Nam Island),15.090542,104.327051
342,868333031227222,สำนักงานอุตสาหกรรมจังหวัดสุรินทร์,Industrial Office Surin,14.872735,103.48622
343,868333031255702,สำนักงานเทศบาลตำบลนิคมปราสาท,Nikhom Prasat Subdistrict Municipality,14.617303,103.350391
344,868333031260538,สาธารณสุขจังหวัดหนองบัวลำภู,Nong Bua Lam Phu Provincial Public Health Office,17.207684,102.446324
345,868333031263870,เทศบาลท่าบ่อ,Tha Bo Municipality,17.849344,102.585932
346,868333031266907,อบต.ผาตั้ง, Phatang Subdistrict Administrative Organization,18.02667,102.365277
347,868333031267335,อบต.สระใคร,Sakhrai Subdistrict Administrative Organization,17.697198,102.783147
348,868333031261866,ปั๊มน้ำมันคาลเท็กซ์ (ช.วิบูลย์),Chor Wiboon Caltex Gas station,17.292777,102.242285
349,868333031261882,ปตท.ศรีบุญเรือง,PTT Gas station  Sribunruang,16.955575,102.264482
350,868333031267343,สวนสาธารณะมิ่งมงคล (หอนาฬิกา),Ming Mongkhon Park (Clock Tower),15.862985,104.626593
351,868333031267871,โรงงานน้ำตาลมิตรผลอำนาจเจริญ,Mitr Phol Amnat Charoen Sugar Factory,15.834129,104.477241
352,868333031267889,วัดพระธาตุนาป่าแซง (วัดสุทธิกาวาส),Wat Phra That Na Pa Sang (Wat Sutthikawat),15.816927,104.903224
353,868333031270958,สำนักงานทรัพยากรธรรมชาติและสิ่งแวดล้อมจังหวัดอุบลราชธานี,"Office of Natural Resources and Environment, Ubon Ratchathani Province",15.276859,104.804151
354,868333031266980,โรงบรรจุก๊าซหุงต้ม บริษัท บัญชรเทวกุล จำกัด,Banchorntewakul ,17.434426,102.804695
355,868333031267368,ปั๊มน้ำมันศรีพลัง อ.เมือง จ.อุดรธานี ,Sri Phalang Gas Station Udon thani,17.373739,102.852825
356,868333031267921,ศาลากลางจังหวัดอุดรธานี,Udon Thani Provincial Hall,17.415586,102.787537
357,868333031260645,เขตรักษาพันธุ์สัตว์ป่าบุณฑริก-ยอดมน,Buntharik-Yodmon Wildlife Sanctuary,14.897273,105.475778
358,868333031262476,เขตรักษาพันธุ์สัตว์ป่ายอดโดม,Yod Dome Wildlife Sanctuary,14.435133,105.099904
366,868333031267145,(Test) พี่หน่อง2,(Test) พี่หน่อง2,NULL,NULL
378,868333031256452,(Test) พี่หน่อง1,(Test) พี่หน่อง1,NULL,NULL
384,868333031268325,ที่ว่าการอำเภอแม่แจ่ม,Mae Chaem District Office,18.498946,98.362603
385,868333031256601,โรงเรียนราชประชานุเคราะห์ 31,Rajaprajanugroh 31 School,18.52397,98.394167
387,868333032082667,(รอเปลี่ยนจุด)ปตท. LPG Station สาขาเขาไร่ยา,PTT LPG Station Khao Rai Ya,12.665597,102.091164
388,868333032084804,ปตท. LPG น้ำตกพลิ้ว หจก. เกษมแก๊ส3,PTT LPG Namtok Phliu,12.519413,102.165396
389,868333032089688,เอสโซ่ สอยดาว พาสโก้พลัสเอเนอร์ยี่ (พรอำนวยเซอร์วิส),ESSO Soi Dao by Pasco Plus Energy,13.110397,102.224547
390,868333032097145,โรงเรียนดัดดรุณี,Datdaruni School,13.690163,101.075109
391,868333032099455,ห้างหุ้นส่วนจำกัด รุ่งพิทักษ์ปิโตรเลียม,Rungpitak Petroleum,13.738148,101.338708
392,868333032099950,บริษัท กัลฟ์ เจพีเอ็นเอ็นเค จำกัด,Gulf JP NNK Company Limited,13.73345,101.015452
393,868333032100295,ปตท.สี่แยกโบว์ลิ่ง สาขานาคะพงษ์,PTT Gas station Nakapong Chonburi Company Limited,13.35452,100.983012
394,868333032107407,ปั๊มบางจาก มอเตอร์เวย์ ด่านโป่ง,ฺBangchak Gas station Motorway (Pong),12.968992,100.982469
395,868333032110062,สนามกีฬาเทศบาลนครแหลมฉบัง,Chabung Chonburi Stadium,13.118055,100.91807
396,868333032085082,ปั๊ม ปตท.มาบค้างคาว,PTT Gas station Map Kang Kao,12.042296,102.298137
397,868333032085157,ห้างหุ้นส่วนจำกัด ธนา พาวเวอร์เซอร์วิส (เชลล์ไม้รูด),Thana Power Service Limited,11.905068,102.808449
398,868333032089134,สน.ปตท.บจ.เติมเต็มปิโตรเลียม,"Term Tem Petroleum Co.,Ltd",12.262706,102.501993
399,868333032090900,ด่านทางขึ้นอุทยานแห่งชาติเขาใหญ่,Khao Yai National Park Checkpoint,14.222485,101.405658
400,868333032096733,โรงเรียนเทศบาล 3 (วัดแก้วพิจิตร),Tesaban 3 School (Wat Keawphichit),14.055593,101.385508
401,868333032099083,โรงไฟฟ้านนทรี,Gulf NC Company Limited,14.031707,101.712033
402,868333032107258,หจก.สำรวยบริการ2 (สี่แยกบ้านสร้าง),Samruai Service 2 Limited Partnership  (PPT Prachin Buri),13.984676,101.222533
403,868333032083632,สำนักงานพลังงานจังหวัดระยอง,Provincial Energy Office Rayong,12.707887,101.185257
404,868333032087328,ศูนย์วิจัยทรัพยากรทางทะเลและชายฝั่งอ่าวไทยตะวันออก,"Marine and Coastal Resources Research and Development Center ,The Eastern Gulf of Thailand",12.698786,101.703559
406,868333032088631,สำนักงานพลังงานจังหวัดสระแก้ว,Provincial Energy Office of Sakaeo,13.79742,102.13869
407,868333032099265,ปตท.วังใหม่2 บ.จิรรุ่งเจริญออยล์ หมู่ 2,"Jirarungrueang Oil Co.,Ltd. (PPT Sakaeo)",13.413991,102.199517
408,868333032108900,ปตท.อรัญประเทศ บ.ลิ้มเจี๊ยบฮงโซล่า หมู่ 1,"Limjeabhong Solar Power Co.,Ltd. (PPT Sakaeo)",13.711349,102.481231
409,868333032088458,บริษัท ระยองรัตน์ออยล์ กรุ๊ป จำกัด,Rayong Ratana Oil Company Limited,12.672075,101.292833
410,868333032082170,สถานีไฟฟ้าแรงสูง กาญจนบุรี,Kanchanaburi High Voltage Power Station,14.024897,99.541457
411,868333032082444,สถานีไฟฟ้าแรงสูง กาญจนบุรี2,Kanchanaburi high voltage power station 2,14.126803,99.497898
412,868333032088219,สถานีไฟฟ้าแรงสูง ท่าม่วง,Tha Muang High Voltage Station,13.976306,99.628274
413,868333032090587,จุดพักรถอู่ตะเภา แขวงทางหลวงชัยนาท,Chainat Highway District  U-Tapao Bus Stop,15.287735,100.193354
414,868333032090827,บริษัท บีเอ็มพี เอ็นเนอร์ยี่ จำกัด (มหาชน),BMP Energy Public Company Limited,15.215858,100.055327
415,868333032083673,สวนนกชัยนาท,Chainat Bird Park,15.206423,100.151848
416,868333032095727,ป้อมตำรวจ บริเวณสี่แยกบุ่งกระเบา,Police Box Bung Krabao Intersection,14.22046,101.229254
417,868333032095842,ป้อมตำรวจ บริเวณสี่แยกบางอ้อ,Police Box Bang O Intersection,14.206719,101.069463
418,868333032108967,ป้อมตำรวจ บริเวณแยกองครักษ์,Police Box Ongkharak Intersection,14.122602,100.996118
420,868333032085017,ที่ทำการองค์การบริหารส่วนตำบลกำแพงแสน,Kamphaeng Saen Subdistrict Administration Organization Office,14.026571,99.992379
421,868333032086288,โรงเรียนอนุบาลเทศบาลตำบลบางเลน,Banglen Subdistrict Municipality Kindergarten,14.02426,100.167003
422,868333032090801,สำนักงานเทศบาลตำบลสามง่าม,Samngam Subdistrict Municipality Office,13.961031,100.081772
423,868333032096766,บริษัท เกษตรไทยไบโอเพาเวอร์ จำกัด,"Kaset Thai Bio Power Co.,Ltd.",15.383162,100.233604
424,868333032097202,อาคารตู้ควบคุมสัญญาณไฟจราจร แยกถนนพหลโยธิน,Phahol Yothin Intersection Traffic Control Building,15.710787,100.118595
425,868333032099125,อาคารแสดงพันธุ์สัตว์น้ำบึงบอระเพ็ดเฉลิมพระเกียรติ 80 พรรษา,Bungboraped Aquarium,15.711672,100.176065
426,868333032103703,ปั้ม ESSO หัวหิน (หจก.ธนัญธรฐิติพร),ESSO Gas Station Hua Hin (Thanuntorntitiporn Limited Partnership),12.573986,99.955563
427,868333032107951,ปั๊ม ปตท. กุยบุรี (บริษัท ส.สมบูรณ์ปิโตรเลียม จำกัด),"PTT Gas station Kuiburi (S. Samboon Petroleum Co.,Ltd.)",12.072208,99.859641
428,868333032098549,บริษัท สหวิริยาสตีลอินดัสตรี จำกัด (มหาชน),Sahaviriya Steel lndustries Public Company Limited Prachuapkhirikhan,11.225629,99.538529
431,868333032082311,ที่ว่าการอำเภอท่าเรือ,Tha Ruea District Office,14.551556,100.727543
432,868333032082600,ที่่ว่าการอำเภอนครหลวง,Nakhon Luang District office,14.464423,100.605739
433,868333032083970,ที่ว่าการอำเภออุทัย,Uthai District Office,14.332214,100.66285
434,868333032098978,สำนักงานพลังงานจังหวัดเพชรบุรี,Provincial Energy Office of Phetchaburi,13.111868,99.932918
435,868333032102689,อุทยานสิ่งแวดล้อมนานาชาติสิรินธร,The Sirindhorn International Environmental Park,12.703326,99.958045
436,868333032107779,องค์การบริหารส่วนตำบลหนองชุมพลเหนือ,Office of the Nongchumphonneu Subdistrict Administrative Organization,13.325992,99.805669
437,868333032108918,บริษัท ผลิตไฟฟ้าราชบุรี จำกัด,"Ratchaburi Electricity Generating Co., Ltd.",13.597684,99.887592
438,868333032109163,บริษัท บ้านโป่งยูทิลิตี้ จำกัด,"Banpong Utilities Co., Ltd",13.858922,99.855897
439,868333032109833,สำนักงานพลังงานจังหวัดราชบุรี,Provincial Energy Office of Ratchaburi,13.570139,99.730514
441,868333032082568,ปั้ม ปตท.ลำนารายณ์ บจก.นิยมชัยปิโตรเลียม,Lam Narai PTT Gas station,15.210793,101.120259
442,868333032083087,ปั้มเชลล์ บจก.ลพบุรีธนแก๊ส 2,Shell Gas station Lopburitanagas 2,14.830172,100.6455
443,868333032083160,ปั้มแก๊ส NGV ปตท.พัฒนานิคม (บจก.ลพบุรีปัณชญา),Patananikom PTT NGV (Lopburi Panchaya Pattananikom),14.809335,100.912274
444,868333032085074,สำนักงานเทศบาลเมืองสมุทรสงคราม,Samutsongkhram Municipality Office,13.40936,100.001823
445,868333032087294,สำนักงานเทศบาลตำบลอัมพวา,Amphawa Subdistrict Municipality Office,13.424735,99.955835
446,868333032088235,คลังน้ำมันพีที แม่กลอง,Mae Klong PT Petroleum Terminal,13.370975,100.000409
447,868333032088615,องค์การบริหารส่วนตำบลพันท้ายนรสิงห์,Pantainorasing Subdistrict Administration,13.531984,100.380998
448,868333032088995,องค์การบริหารส่วนตำบลบ้านแพ้ว,Ban Phaeo Subdistrict Administration Organization Office,13.634167,100.09315
449,868333032105104,สำนักงานเทศบาลตำบลหลักห้า,Lak-ha Subdistrict Municipality Office,13.561983,100.056776
450,868333032109965,โรงเรียนสงวนหญิง,Sa-Nguan Ying School,14.484932,100.123852
451,868333032082907,เทศบาลเมืองพระพุทธบาท,Phaphuththabath Municipality Saraburi,14.721088,100.805094
452,868333032085173,(Test) โรงเรียนแก่งคอย,(Test) โรงเรียนแก่งคอย,14.589201,100.995506
453,868333032090637,(Test) องค์การบริหารส่วนตำบลเขาวง,(Test) องค์การบริหารส่วนตำบลเขาวง,14.664161,100.834374
454,868333032096584,องค์การบริหารส่วนจังหวัดสิงห์บุรี,Singburi Provincial Administrative Organization,14.898293,100.393082
455,868333032098374,องค์การบริหารส่วนตำบลบ้านหม้อ,Ban Mor Subdistrict Administrative Organization,14.751722,100.450636
456,868333032099281,อุทยานวีรชนค่ายบางระจัน,Khai Bang Rachan Heroes Park Singburi,14.803747,100.321264
457,868333032099729,ที่ว่าการอำเภออู่ทอง,U-Thong District Office,14.375598,99.892423
458,868333032100824,กองอาสารักษาดินแดนอำเภอด่านช้าง ที่ 4,Dan Chang Territorial Army 4,14.843488,99.697811
460,868333032088862,สี่แยกสัญญานไฟจราจรเทศบาลเมืองอ่างทอง (แยกปากหวาน),สี่แยกสัญญานไฟจราจรเมืองอ่างทอง (แยกปากหวาน),14.593263,100.451957
461,868333032089118,ระบบประปาเทศบาลตำบลโพสะ,Water Supply System Posa Subdistrict Municipal ,14.531875,100.459877
462,868333032090967,เทศบาลตำบลไชโย,Chai Yo Subdistrict Municipality,14.666717,100.470188
463,868333032091072,สวนเฉลิมพระเกียรติพระบาทสมเด็จพระเจ้าอยู่หัว เฉลิมพระชนมพรรษา 80 พรรษา,His Majesty the king 80th birthday anniversary Park,15.384312,100.024892
464,868333032096196,วัดสังกัสรัตนคีรี,Wat Sankasrattanakiri,15.376223,100.018666
465,868333032107860,ลานสะแกกรัง,Sakae Krang Yard,15.383253,100.029407
470,868333032102770,โรงพยาบาลแม่ทะ,Mae Tha Hospital,18.156994,99.539596
471,868333032109270,คุณสายชล สันเขื่อนสิริกิติ์,Sirikit Dam,17.767062,100.566225
472,868333032085264,Test EGAT 328,Test EGAT 328,NULL,NULL
473,868333032088052,Test EGAT 329,Test EGAT 329,NULL,NULL
474,868333032088516,โรงเรียนอนุบาลลพบุรี,Anuban Lopburi School,14.79976,100.62478
475,868333032089449, โรงเรียนอนุบาลชัยนาท,Anuban Chainat School,15.19255,100.123392
476,868333032090835,โรงเรียนอนุบาลวัดอ่างทอง,Anuban WatAngthong School,14.589014,100.456719
477,868333032100055,Test EGAT 333,Test EGAT 333,NULL,NULL
478,868333032102143,โรงเรียนบ้านสุไหงโก-ลก,Ban Sungai Kolok School,6.023392,101.962645
479,868333032106441,โรงเรียนอนุบาลสิงห์บุรี,Anubansingburi School,14.89744,100.398754
480,868333032108439,โรงเรียนอนุบาลนครสวรรค์,Anuban Nakhon Sawan School,15.678921,100.108291
481,868333032084952,โรงเรียนมัธยมพัชรกิติยาภา ๓ สุราษฎร์ธานี,Matthayom Phatchara Kittiyapha 3 Surat Thani School,9.01466,99.37591
482,868333032087229,Test EGAT 338,Test EGAT 338,NULL,NULL
483,868333032088946,Test EGAT 339,Test EGAT 339,NULL,NULL
484,868333032089019,Test EGAT 340,Test EGAT 340,NULL,NULL
485,868333032095578,Test EGAT 341,Test EGAT 341,NULL,NULL
486,868333032096147,โรงเรียนอนุบาลวัดหนองขุนชาติ (อุทิศพิทยาคาร),Anubanwatnongkhunchat (Uthitpitthayakarn) School,15.389456,99.837115
487,868333032096717,Test EGAT 343,Test EGAT 343,NULL,NULL
488,868333032098838,Test EGAT 344,Test EGAT 344,NULL,NULL
489,868333032099745,โรงเรียนวัดควนวิเศษ,Watkuanwised School,13.6984,100.4638
490,868333032107852,โรงเรียนอนุบาลพัทลุง,Anubanphatthalung School,7.617811,100.072084
491,868333032100790,Test EGAT 347,Test EGAT 347,NULL,NULL
493,868333032097913,โรงเรียนวัดเชิงกระบือ,WatCherngkrabue School,13.804909,100.503256
494,868333032087740,โรงเรียนเมืองกระบี่,Muangkrabi School,8.10759,98.91495
495,868333032088482,Test EGAT 351,Test EGAT 351,NULL,NULL
496,868333032087195,โรงเรียนศรีวิชัยวิทยา,Sriwichaiwithaya School,13.838977,100.028048
498,868333032096345,Test EGAT 354,Test EGAT 354,NULL,NULL
499,868333032090744,Test EGAT 355,Test EGAT 355,NULL,NULL
500,868333032088359,Test EGAT 356,Test EGAT 356,NULL,NULL
501,868333032099547,Test EGAT 357,Test EGAT 357,NULL,NULL
502,868333032107886,Test EGAT 358,Test EGAT 358,NULL,NULL
503,868333032099208,Test EGAT 359,Test EGAT 359,NULL,NULL
504,868333032091056,Test EGAT 360,Test EGAT 360,NULL,NULL
505,868333032085991,โรงเรียนอนุบาลประจวบคีรีขันธ์,Anuban Prachuapkhirikhan School,11.809894,99.798019
506,868333032082956,Test EGAT 362,Test EGAT 362,NULL,NULL
507,868333032084911,Test EGAT 363,Test EGAT 363,NULL,NULL
508,868333032102499,Test EGAT 364,Test EGAT 364,NULL,NULL
509,868333032102788,โรงเรียนอนุบาลราชบุรี,Anubanratchaburi School,13.537699,99.810836
510,868333032099612,โรงเรียนสมุทรปราการ,Samutprakan School,13.585528,100.607194
511,868333032099604,โรงเรียนทีปังกรวิทยาพัฒน์(วัดน้อยใน)ในพระราชูปถัมภ์ฯ,Dipangkornwittayapat(Wat-Noi-Nai) under the Royal Patronage School,13.791912,100.465829
512,868333032086114,โรงเรียนทีปังกรวิทยาพัฒน์ (ทวีวัฒนา) ในพระราชูปถัมภ์ ฯ,Dipangkornwittayapat (Taweewattana) Under Royal Patronage School,13.751056,100.348363
513,868333032096618,โรงเรียนอนุบาลวัดลูกแกประชาชนูทิศ,Anuban Watlukkae Prachachanutis School,13.872468,99.816651
514,868333032090561,"โรงเรียนบ้านนา ""นายกพิทยากร""",Banna Nayokphitthayakorn School,14.260432,101.075119
516,868333032088680,โรงเรียนทีปังกรวิทยาพัฒน์(วัดโบสถ์)ในพระราชูปถัมภ์ฯ,Dipangkornwittayapat (Watbot) Under Royal Patronage School,13.78247,100.510765
517,868333032088623,โรงไฟฟ้าพลังงานขยะเทศบาลเมืองกระบี่,โรงไฟฟ้าพลังงานขยะเทศบาลเมืองกระบี่,8.118696,98.864539
518,868333032088755,มหาวิทยาลัยการกีฬาแห่งชาติ วิทยาเขตกระบี่,Thailand National Sport University Krabi Campus,8.106817,98.915879
519,868333032084929,โรงแรมกระบี่รีสอร์ท,Krabi Resort,8.035903,98.81809
520,868333032091007,สถานีบริการน้ำมัน PT สาขาชุมพร2,PT Gas Station Chumphon 2,10.500734,99.179003
521,868333032102697,สถานีบริการน้ำมัน ขวัญเมือง เอนเนอร์จี,Kwangmuang Energy Gas Station,10.008541,99.066484
522,868333032091098,สถานีบริการน้ำมันปตท. สามดาวปิโตรเลียม,"PTT Gas station Sam Dao Petroleum Co.,Ltd.",10.695303,99.205518
523,868333032102663,บริษัท ตรังน้ำมันปาล์ม จำกัด,Trang Palm Oil Company Limited,7.556307,99.43902
524,868333032083186,ปั๊ม ปตท. (หจก.วิเศษกุลเซอร์วิส),PTT Gas station (Visadkul Service),7.549227,99.614213
527,868333032102671,(รอเปลี่ยนจุด)วิสาหกิจชุมชนการท่องเที่ยวเกาะลิบง,Libong Community Enterprise for Tourism and Occupational Development,7.227044,99.395358
528,868333031256783,โรงไฟฟ้าบางปะกง,Bang Pakong Power Plant,13.495651,101.023438
529,868333032081792,โรงพยาบาลเทศบาลนครนครศรีธรรมราช, Nakhon Si Thammarat Municipality Hospital,8.417152,99.965129
530,868333032082329,โรงไฟฟ้าขนอม,EGCO Khanom,9.233213,99.860454
531,868333032083533,องค์การบริหารส่วนตำบลกำโลน,Kamlon Subdistrict Administrative Organization,8.432443,99.782727
533,868333032083848,สถานีขนส่งผู้โดยสารจังหวัดนราธิวาส,Narathiwat Bus Terminal,6.411018,101.826027
534,868333032086049,สี่แยก ISUZU นราธิวาส,ISUZU Intersection Narathiwat,6.415878,101.811785
535,868333032088896,ตลาดสดเทศบาลเมืองสุไหงโก-ลก,Su-ngai Kolok Municipal Market,6.024426,101.96431
536,868333031256122,แยกราชประสงค์ (หน้าทางเข้าศูนย์การค้าเซ็นทรัลเวิลด์),Ratchaprasong Intersection (Central World Entrance),13.744738,100.539238
537,868333031260496,แยกปทุมวัน,Pathum Wan Intersection,13.746173,100.529929
538,868333031271782,ถนนพระราม 1 (หน้าศูนย์การค้าสยามสแควร์วัน),Rama 1 Road (Siam Square One Entrance),13.745556,100.53392
540,868333032085108,แยกอังรีดูนังต์ ,Henri Dunant Intersection,13.745291,100.535947
542,868333032080612,Test EGAT 370,Test EGAT 370,NULL,NULL
544,868333032089274,Test EGAT 372,Test EGAT 372,NULL,NULL
546,868333032099307,Test EGAT 374,Test EGAT 374,NULL,NULL
547,868333032109296,Test EGAT 375,Test EGAT 375,NULL,NULL
548,868333032087716,Test EGAT 371,Test EGAT 371,NULL,NULL
549,868333032088813,Test EGAT 373,Test EGAT 373,NULL,NULL
550,868333032098804,Test EGAT 376,Test EGAT 376,NULL,NULL
551,868333032102580,Test EGAT 377,Test EGAT 377,NULL,NULL
552,868333032107894,Test EGAT 378,Test EGAT 378,NULL,NULL
553,868333032084986,Test EGAT 379,Test EGAT 379,NULL,NULL
554,868333032083152,Test EGAT 380,Test EGAT 380,NULL,NULL
555,868333032086015,Test EGAT 381,Test EGAT 381,NULL,NULL
556,868333032086130,Test EGAT 382,Test EGAT 382,NULL,NULL
557,868333032088391,Test EGAT 383,Test EGAT 383,NULL,NULL
558,868333032096634,Test EGAT 384,Test EGAT 384,NULL,NULL
559,868333032098754,Test EGAT 385,Test EGAT 385,NULL,NULL
560,868333032089647,Test EGAT 386,Test EGAT 386,NULL,NULL
561,868333032096089,Test EGAT 387,Test EGAT 387,NULL,NULL
562,868333032109353,Test EGAT 388,Test EGAT 388,NULL,NULL
563,868333032097061,Test EGAT 389,Test EGAT 389,NULL,NULL
564,868333032090777,Test EGAT 390,Test EGAT 390,NULL,NULL
565,868333032087252,Test EGAT 391,Test EGAT 391,NULL,NULL
566,868333032082964,Test EGAT 392,Test EGAT 392,NULL,NULL
567,868333032084887,Test EGAT 393,Test EGAT 393,NULL,NULL
568,868333032089779,Test EGAT 394,Test EGAT 394,NULL,NULL
569,868333032098564,Test EGAT 395,Test EGAT 395,NULL,NULL
570,868333032102762,Test EGAT 396,Test EGAT 396,NULL,NULL
571,868333032108413,Test EGAT 397,Test EGAT 397,NULL,NULL
572,868333032083806,Test EGAT 398,Test EGAT 398,NULL,NULL
573,868333032084135,Test EGAT 399,Test EGAT 399,NULL,NULL
574,868333032087138,Test EGAT 400,Test EGAT 400,NULL,NULL
576,868333032088524,บริษัท ยูนิวานิชน้ำมันปาล์ม จำกัด (มหาชน) จ.พังงา,Univanich Palm Oil Public Company Limited Phangnga,9.237066,98.396297
577,868333032082105,บริษัท ปาล์มพัฒนาชายแดนใต้ จํากัด,"Palm Pattana Southern Border Co.,Ltd.",6.81603,101.156139
578,868333032085215,ปั๊ม ปตท. บริษัท เอสทีซี ปิโตรเลียม จำกัด,PTT Gas station (STC Petroleum),6.857905,101.226486
579,868333032086205,สี่แยกรัตนโกสินทร์ (สี่แยกโรงพยาบาลปัตตานี),Rattanakosin Intersection (Pattani Hospital Intersection),6.869487,101.250685
580,868333032089662,สำนักงานพลังงานจังหวัดพังงา,Phangnga Energy Office,8.444359,98.529549
581,868333032100360,โรงแรมเกรซแลนด์ เขาหลัก บีช รีสอร์ท,Graceland Khao Lak Beach Resort,8.799614,98.263186
582,868333032083046,ศูนย์บริการนักท่องเที่ยวเทศบาลเมืองพัทลุง,Tourist Information Center,7.615657,100.074019
583,868333032088417,ศูนย์การเรียนรู้ชุมชนพนางตุง, Phanangtung Learning Center ,7.78102,100.12292
584,868333032089381,โรงไฟฟ้าพัทลุงเพาเวอร์กรีน,Phatthalung Green Power Powerplant,7.312121,100.151682
585,868333032089670,ศูนย์กำจัดขยะมูลฝอยเทศบาลนครภูเก็ต,Phuket Integrated Solid Waste Management,7.864091,98.395452
586,868333032108462,ปั๊ม Shell อ.ถลาง (บจก.อนุภาษและบุตร สาขา 3),Shell Gas station Thalang,7.982461,98.362088
588,868333031269885,การไฟฟ้าฝ่ายผลิตแห่งประเทศไทย,EGAT Headquarters,13.811726,100.506667
589,868333032088805,ปั๊มบางจาก ต.ป่าตอง (บจก.บุญศิลป์ปิโตรเลียมออยล์),Bangchak Gas station Pa Tong,7.895237,98.302441
590,868333032083541,ปั๊ม ปตท. (อัสรี ปิโตรเลียม),PTT Gas station (Asri Petroleum),6.481,101.317561
591,868333032098051,ปั๊ม ปตท. (บริษัท อามานะห์ การปิโตรเลียมแอนด์เซอวิส จำกัด),PTT Gas station (Amanah Petroleum and Service Company Limited),6.554985,101.302274
592,868333032102648,ปั๊ม ปตท. (บริษัท เอสวายเอ็ม ยะหาปิโตรเลียม 1439),PTT Gas station (S Y M Yaha Petroleum 1439),6.488402,101.131064
593,868333032109486,ร้านจ่าจ้า คอฟฟี่,Jajaa Coffee Ranong,9.95677,98.639105
594,868333032090975,สำนักงานตรวจคนเข้าเมือง จ.ระนอง,Ranong lmmigration Office,9.952081,98.600103
595,868333032100204,สำนักงานพลังงานจังหวัดระนอง,Ranong Energy Office,9.895675,98.622611
596,868333032082451,ย่านเมืองเก่าสงขลา (โรงสีแดง),Hub Ho Hin (Red Rice Mill),7.198413,100.588506
597,868333032087765,หน้าด่านศุลกากรสะเดา,Sadao Customs House,6.544357,100.41577
598,868333032087922,บริษัท โทรคมนาคมแห่งชาติ จำกัด (มหาชน) สาขาสนามบินหาดใหญ่,"National Telecom Public Co., Ltd. Hat Yai International Airport",6.950242,100.413059
599,868333032088045,(Test) ท่าเทียบเรือปากบารา,(Test) ท่าเทียบเรือปากบารา,6.860211,99.721562
600,868333032095982,(Test) บริษัท สตูล กรีน พาวเวอร์ จำกัด,(Test) บริษัท สตูล กรีน พาวเวอร์ จำกัด,6.853588,100.046963
601,868333032097525,บริษัท ธนารัตน์ปิยะปิโตรเลียม จำกัด สาขา 0006,Tanaratpiya Petroleum Company Limited 0006 (PTT Station),9.176862,99.366485
602,868333032099141,บริษัท ไชยาปิยะแก๊ส จำกัด สาขา 0004,"Chaiyapiyagas Co.,Ltd. 004 (PTT Station)",9.425955,99.154572
603,868333032089092,บริษัท 928 ออยล์แอนด์แก๊ส จำกัด สาขา 0008,"928 Oil and Gas Co.,Ltd. 0008 (Caltex Station)",8.664848,99.335208
606,868333032082980,องค์การบริหารส่วนตำบลบางใหญ่,Bangyai Subdistrict Administration Organization,13.832556,100.342241
607,868333032083004,สำนักงานอุตสาหกรรมจังหวัดนนทบุรี,Nonthaburi Provincial Industry Office,13.87785,100.40477
608,868333032087476,เทศบาลเมืองบางบัวทอง,Bang Bua Thong Municipality Office,13.910042,100.425524
610,868333032088268,สวนสนุกดรีมเวิลด์,Dream World,13.992679,100.674809
611,868333032096105,โรงไฟฟ้าเชียงรากน้อย,Chiang Rak Noi Power Plant,14.097683,100.570965
612,868333032102655,"บริษัท บี.กริม บีไอพี เพาเวอร์ 1,2 จำกัด","B.Grimm BIP Power 1,2 Limited",13.975322,100.565462
613,868333032107530,ป้อมจราจร ศีลคุณ สภ.บางพลี,Police Box (Bang Phli),13.633908,100.709253
614,868333032084549,สำนักงานเทศบาลเมืองลัดหลวง,Lat Luang Municipality Office,13.62998,100.532879
615,868333032108546,โรงเรียนหลวงพ่อปานคลองด่านอนุสรณ์,Luang Por Pan Khlong Dan Anusorn School,13.506631,100.833071
616,868333032082196,exim bank,exim bank,NULL,NULL
617,868333032087971, , ,NULL,NULL
618,868333032110054, , ,NULL,NULL
